      2.10          N: GNSS NAV DATA                        RINEX VERSION / TYPE
fic2rin                                 05/20/2021 00:17:07 PGM / RUN BY / DATE
                                                            END OF HEADER
 4 21  5 19 22  0  0.0-1.969179138541e-04-1.477928890381e-12 0.000000000000e+00
    2.010000000000e+02-2.612500000000e+01 4.329823211659e-09-1.800944761218e+00
   -1.415610313416e-06 1.222508843057e-03 1.048855483532e-05 5.153747009277e+03
    3.384000000000e+05-1.173466444016e-07-1.194298234812e+00-1.862645149231e-09
    9.601600497429e-01 1.768750000000e+02-2.923649047730e+00-7.810325331400e-09
    7.571743964957e-11 1.000000000000e+00 2.158000000000e+03 0.000000000000e+00
    2.400000000000e+00 0.000000000000e+00-4.190951585770e-09 9.690000000000e+02
    3.312000000000e+05 4.000000000000e+00
14 21  5 19 22  0  0.0 8.346838876605e-05-5.456968210638e-12 0.000000000000e+00
    2.220000000000e+02 2.034375000000e+01 4.653408118841e-09 1.874355020330e+00
    9.499490261078e-07 7.108050631359e-04 7.094815373421e-06 5.153750497818e+03
    3.384000000000e+05 1.676380634308e-08 9.105793524622e-01 1.117587089539e-08
    9.572454912199e-01 2.406562500000e+02 2.686058513507e+00-8.109266354922e-09
   -2.589393572922e-10 1.000000000000e+00 2.158000000000e+03 0.000000000000e+00
    2.400000000000e+00 0.000000000000e+00-7.916241884232e-09 4.780000000000e+02
    3.312000000000e+05 4.000000000000e+00
29 21  5 19 22  0  0.0-3.498881123960e-04-6.480149750132e-12 0.000000000000e+00
    2.600000000000e+01 3.915625000000e+01 3.991237679641e-09-1.069929044279e+00
    1.916661858559e-06 1.854372210801e-03 8.745118975639e-06 5.153638393402e+03
    3.384000000000e+05-1.117587089539e-08 1.986510660383e+00-7.450580596924e-09
    9.838994329149e-01 2.284687500000e+02 2.138420025457e+00-7.800324914842e-09
    6.107397254753e-11 1.000000000000e+00 2.158000000000e+03 0.000000000000e+00
    2.400000000000e+00 0.000000000000e+00-9.778887033463e-09 2.600000000000e+01
    3.312000000000e+05 4.000000000000e+00
30 21  5 19 22  0  0.0-4.282281734049e-04-4.888534022029e-12 0.000000000000e+00
    2.100000000000e+01 3.587500000000e+01 5.161643574602e-09 2.122355313875e+00
    1.853331923485e-06 5.213316064328e-03 7.415190339088e-06 5.153700151443e+03
    3.384000000000e+05-5.774199962616e-08-1.553005306047e-01-1.117587089539e-08
    9.372068665421e-01 2.258125000000e+02-2.781636111338e+00-8.303560162325e-09
    7.321733551020e-11 1.000000000000e+00 2.158000000000e+03 0.000000000000e+00
    2.400000000000e+00 0.000000000000e+00 3.725290298462e-09 2.100000000000e+01
    3.312000000000e+05 4.000000000000e+00
25 21  5 19 22  0  0.0 1.402953639627e-04 7.048583938740e-12 0.000000000000e+00
    2.700000000000e+01 1.096875000000e+01 4.623764026903e-09 1.238818117679e+00
    4.470348358154e-07 9.895374299958e-03 6.807968020439e-06 5.153623682022e+03
    3.384000000000e+05-1.452863216400e-07 8.642026418060e-01 1.303851604462e-08
    9.611365797450e-01 2.479375000000e+02 9.705203595086e-01-8.254272395006e-09
   -3.057270204718e-10 1.000000000000e+00 2.158000000000e+03 0.000000000000e+00
    2.400000000000e+00 0.000000000000e+00 5.587935447693e-09 2.700000000000e+01
    3.312000000000e+05 4.000000000000e+00
32 21  5 19 22  0  0.0 2.088490873575e-05-7.958078640513e-13 0.000000000000e+00
    6.000000000000e+01-3.196875000000e+01 4.534831751088e-09-5.076256129415e-01
   -1.758337020874e-06 4.953961935826e-03 9.488314390182e-06 5.153674627304e+03
    3.384000000000e+05 5.401670932770e-08-1.235081361159e+00 6.891787052155e-08
    9.569800827702e-01 1.962187500000e+02-2.368037559595e+00-8.049621013311e-09
   -1.571494030463e-11 1.000000000000e+00 2.158000000000e+03 0.000000000000e+00
    2.400000000000e+00 0.000000000000e+00 4.656612873077e-10 6.000000000000e+01
    3.312000000000e+05 4.000000000000e+00
24 21  5 19 22  0  0.0 8.758669719100e-05 2.216893335572e-11 0.000000000000e+00
    3.000000000000e+01 3.493750000000e+01 5.027352266544e-09-3.060620461207e+00
    1.784414052963e-06 1.108295028098e-02 7.675960659981e-06 5.153728250504e+03
    3.384000000000e+05 9.313225746155e-09-2.506978398742e-01-1.247972249985e-07
    9.353472738369e-01 2.164062500000e+02 7.392086170174e-01-8.088908364073e-09
    2.346526313668e-10 1.000000000000e+00 2.158000000000e+03 0.000000000000e+00
    2.400000000000e+00 0.000000000000e+00 2.793967723846e-09 3.000000000000e+01
    3.312000000000e+05 4.000000000000e+00
17 21  5 19 22  0  0.0 4.450404085219e-04 6.025402399246e-12 0.000000000000e+00
    2.200000000000e+01 5.984375000000e+01 3.999452307528e-09-1.219370697695e+00
    3.339722752571e-06 1.333375880495e-02 8.681789040565e-06 5.153605451584e+03
    3.384000000000e+05-1.881271600723e-07 1.974060405368e+00 2.551823854446e-07
    9.820369041331e-01 2.290937500000e+02-1.567551675436e+00-7.941045062116e-09
    4.214461263514e-11 1.000000000000e+00 2.158000000000e+03 0.000000000000e+00
    3.400000000000e+00 0.000000000000e+00-1.117587089539e-08 2.200000000000e+01
    3.312000000000e+05 4.000000000000e+00
27 21  5 19 22  0  0.0-1.329164952040e-04-6.480149750132e-12 0.000000000000e+00
    7.300000000000e+01 3.784375000000e+01 4.098742157634e-09-1.255055975856e+00
    2.013519406319e-06 9.440564899705e-03 7.646158337593e-06 5.153686355591e+03
    3.384000000000e+05 2.104789018631e-07 1.913366406591e+00-3.725290298462e-08
    9.758250350524e-01 2.370625000000e+02 6.236385876104e-01-7.865684780200e-09
    5.500229106620e-11 1.000000000000e+00 2.158000000000e+03 0.000000000000e+00
    2.400000000000e+00 0.000000000000e+00 1.862645149231e-09 7.300000000000e+01
    3.312000000000e+05 4.000000000000e+00
22 21  5 19 22  0  0.0-6.101224571466e-04 9.549694368616e-12 0.000000000000e+00
    9.300000000000e+01-6.875000000000e+01 5.217003023402e-09-2.196156360830e+00
   -3.570690751076e-06 7.034763926640e-03 5.658715963364e-06 5.153536455154e+03
    3.384000000000e+05-1.024454832077e-07-2.374313238237e+00 1.564621925354e-07
    9.348101590754e-01 2.541562500000e+02-9.694881976577e-01-8.401064223760e-09
   -1.178620522847e-10 1.000000000000e+00 2.158000000000e+03 0.000000000000e+00
    2.400000000000e+00 0.000000000000e+00-1.769512891769e-08 9.300000000000e+01
    3.312000000000e+05 4.000000000000e+00
19 21  5 19 22  0  0.0 2.218876034021e-06 5.002220859751e-12 0.000000000000e+00
    9.000000000000e+01 4.884375000000e+01 4.049454390315e-09 1.257444003830e+00
    2.404674887657e-06 9.280990459956e-03 8.778646588326e-06 5.153637485504e+03
    3.384000000000e+05 2.235174179077e-08 2.019236977531e+00-2.253800630569e-07
    9.805765622526e-01 2.206875000000e+02 1.835942876036e+00-7.864970464732e-09
    6.571702309208e-11 1.000000000000e+00 2.158000000000e+03 0.000000000000e+00
    2.400000000000e+00 0.000000000000e+00-1.536682248116e-08 9.000000000000e+01
    3.312000000000e+05 4.000000000000e+00
23 21  5 19 22  0  0.0 1.052562147379e-04-3.296918293927e-12 0.000000000000e+00
    8.600000000000e+01-7.381250000000e+01 4.653050961107e-09 2.474678962552e+00
   -3.760680556297e-06 1.176021643914e-03 5.330890417099e-06 5.153653676987e+03
    3.384000000000e+05 5.029141902924e-08-2.301418283241e+00 2.793967723846e-08
    9.640791780189e-01 2.797812500000e+02 2.584056072056e+00-8.189626845116e-09
   -1.160762636137e-10 1.000000000000e+00 2.158000000000e+03 0.000000000000e+00
    2.400000000000e+00 0.000000000000e+00-8.381903171539e-09 8.600000000000e+01
    3.312000000000e+05 4.000000000000e+00
21 21  5 19 22  0  0.0 1.192912459373e-04 2.614797267597e-12 0.000000000000e+00
    6.700000000000e+01 1.793750000000e+01 4.928776731906e-09-1.061947718728e+00
    9.778887033463e-07 2.407877426594e-02 5.526468157768e-06 5.153684860229e+03
    3.384000000000e+05-3.930181264877e-07 2.887334852309e+00-5.587935447693e-08
    9.573612299837e-01 2.812187500000e+02-1.137712050022e+00-8.695719354472e-09
    3.610864692722e-10 1.000000000000e+00 2.158000000000e+03 0.000000000000e+00
    2.400000000000e+00 0.000000000000e+00-1.024454832077e-08 6.700000000000e+01
    3.312000000000e+05 4.000000000000e+00
26 21  5 19 22  0  0.0 8.748425170779e-05 4.888534022029e-12 0.000000000000e+00
    7.400000000000e+01 1.306250000000e+01 4.991279335390e-09 5.362846462481e-01
    7.357448339462e-07 5.878619966097e-03 6.694346666336e-06 5.153560041428e+03
    3.384000000000e+05 3.352761268616e-08 8.222736088020e-01 9.685754776001e-08
    9.420901061087e-01 2.407500000000e+02 3.107167926587e-01-8.380706232911e-09
   -2.142946405177e-10 1.000000000000e+00 2.158000000000e+03 0.000000000000e+00
    2.400000000000e+00 0.000000000000e+00 6.984919309616e-09 7.400000000000e+01
    3.312000000000e+05 4.000000000000e+00
20 21  5 19 22  0  0.0 5.220239982009e-04-3.410605131648e-13 0.000000000000e+00
    6.400000000000e+01-7.228125000000e+01 5.165215151944e-09 3.110743940594e+00
   -3.790482878685e-06 6.050630123354e-03 4.544854164124e-06 5.151720863342e+03
    3.384000000000e+05-5.401670932770e-08-2.420703527698e+00 6.705522537231e-08
    9.381372370901e-01 2.818125000000e+02 3.032494995086e+00-8.441780205459e-09
   -1.492919328940e-10 1.000000000000e+00 2.158000000000e+03 0.000000000000e+00
    2.400000000000e+00 0.000000000000e+00-8.381903171539e-09 6.400000000000e+01
    3.312000000000e+05 4.000000000000e+00
28 21  5 19 22  0  0.0 5.686581134796e-04-6.025402399246e-12 0.000000000000e+00
    7.800000000000e+01 2.000000000000e+01 4.367681931484e-09-6.735748412787e-01
    9.872019290924e-07 1.741370547097e-02 7.707625627518e-06 5.154308223724e+03
    3.384000000000e+05-2.272427082062e-07 9.599313151866e-01 3.352761268616e-08
    9.728989224024e-01 2.435937500000e+02-1.337848987763e+00-8.228199880409e-09
   -1.332198348551e-10 1.000000000000e+00 2.158000000000e+03 0.000000000000e+00
    2.400000000000e+00 0.000000000000e+00-1.117587089539e-08 7.800000000000e+01
    3.312000000000e+05 4.000000000000e+00
